43072,IRIDIUM 116,2017,100.4,860.0,+,86.4,Active,1,LEO,USA,USA,Commercial/Government,Communications,Falcon,1 43072U 17083C   24272.41461914  .00000735  00000+0  25543-3 0  9998,2 43072  86.3982 223.9026 0002298  89.4200 270.7259 14.34216933354338,14.34216933,0.0002298,LEO
43073,IRIDIUM 130,2017,100.4,860.0,+,86.4,Active,1,LEO,USA,USA,Commercial/Government,Communications,Falcon,1 43073U 17083D   24272.87128582  .00000538  00000+0  18508-3 0  9994,2 43073  86.3995 223.9260 0002318  89.4613 270.6849 14.34215580354346,14.3421558,0.0002318,LEO
43074,IRIDIUM 151,2017,100.4,860.0,+,86.4,Active,1,LEO,USA,USA,Commercial/Government,Communications,Falcon,1 43074U 17083E   24272.56684115  .00000320  00000+0  10722-3 0  9999,2 43074  86.3985 223.8824 0002320  81.5160 278.6299 14.34215889354321,14.34215889,0.000232,LEO
43075,IRIDIUM 134,2017,100.4,860.0,+,86.4,Active,1,LEO,USA,USA,Commercial/Government,Communications,Falcon,1 43075U 17083F   24272.39558950  .00000951  00000+0  33264-3 0  9994,2 43075  86.3988 223.9530 0002287  91.1956 268.9501 14.34215834354263,14.34215834,0.0002287,LEO
43076,IRIDIUM 137,2017,100.4,860.0,+,86.4,Active,1,LEO,USA,USA,Commercial/Government,Communications,Falcon,1 43076U 17083G   24272.40827643  .00000922  00000+0  32195-3 0  9995,2 43076  86.3987 224.0282 0002796  82.1397 278.0116 14.34220574354332,14.34220574,0.0002796,LEO
43077,IRIDIUM 141,2017,100.4,860.0,+,86.4,Active,1,LEO,USA,USA,Commercial/Government,Communications,Falcon,1 43077U 17083H   24272.40193407  .00000888  00000+0  30999-3 0  9991,2 43077  86.3987 223.8970 0002152  84.3005 275.8436 14.34224418354331,14.34224418,0.0002152,LEO
43078,IRIDIUM 153,2017,100.4,860.0,+,86.4,Active,1,LEO,USA,USA,Commercial/Government,Communications,Falcon,1 43078U 17083J   24272.77272000  .00000936  00000+0  32695-3 0  9998,2 43078  86.4041 192.2616 0001809  71.7781 288.3612 14.34221420355492,14.3422142,0.0001809,LEO
43079,IRIDIUM 131,2017,100.4,860.0,+,86.4,Active,1,LEO,USA,USA,Commercial/Government,Communications,Falcon,1 43079U 17083K   24272.38922638  .00001245  00000+0  43748-3 0  9990,2 43079  86.3986 224.0462 0002216  81.1657 278.9790 14.34230998354269,14.34230998,0.0002216,LEO
